{
    "week": 295,
    "satellites": [
        {
            "Name": "BEIDOU-3 M8 (C28)",
            "Line1": "1 43108U 18003B   24339.25350937 -.00000050  00000+0  00000+0 0  9997",
            "Line2": "2 43108  54.8023 321.7453 0005135 268.6933  91.2481  1.86230848 46933",
            "SatelliteNumber": "43108",
            "Classification": "U",
            "LaunchYear": "18",
            "LaunchNumber": "003",
            "PieceOfLaunch": "B",
            "EpochYear": "24",
            "EpochDay": 339.25350937,
            "FirstDerivativeMeanMotion": -5e-07,
            "SecondDerivativeMeanMotion": "00000+0",
            "BSTAR": "00000+0",
            "SetNumber": "999",
            "Inclination": 54.8023,
            "RAAN": 321.7453,
            "Eccentricity": 0.0005135,
            "ArgumentOfPerigee": 268.6933,
            "MeanAnomaly": 91.2481,
            "MeanMotion": 1.86230848,
            "RevolutionNumber": "4693"
        },
        {
            "Name": "BEIDOU-3 M4 (C22)",
            "Line1": "1 43207U 18018A   24338.62073493 -.00000008  00000+0  00000+0 0  9995",
            "Line2": "2 43207  56.1620  81.7099 0003606   7.1140 352.8878  1.86231090 46304",
            "SatelliteNumber": "43207",
            "Classification": "U",
            "LaunchYear": "18",
            "LaunchNumber": "018",
            "PieceOfLaunch": "A",
            "EpochYear": "24",
            "EpochDay": 338.62073493,
            "FirstDerivativeMeanMotion": -8e-08,
            "SecondDerivativeMeanMotion": "00000+0",
            "BSTAR": "00000+0",
            "SetNumber": "999",
            "Inclination": 56.162,
            "RAAN": 81.7099,
            "Eccentricity": 0.0003606,
            "ArgumentOfPerigee": 7.114,
            "MeanAnomaly": 352.8878,
            "MeanMotion": 1.8623109,
            "RevolutionNumber": "4630"
        },
        {
            "Name": "BEIDOU-3 M3 (C21)",
            "Line1": "1 43208U 18018B   24338.15038067 -.00000012  00000+0  00000+0 0  9997",
            "Line2": "2 43208  56.1611  81.7299 0006030 308.9321  51.0085  1.86231253 46291",
            "SatelliteNumber": "43208",
            "Classification": "U",
            "LaunchYear": "18",
            "LaunchNumber": "018",
            "PieceOfLaunch": "B",
            "EpochYear": "24",
            "EpochDay": 338.15038067,
            "FirstDerivativeMeanMotion": -1.2e-07,
            "SecondDerivativeMeanMotion": "00000+0",
            "BSTAR": "00000+0",
            "SetNumber": "999",
            "Inclination": 56.1611,
            "RAAN": 81.7299,
            "Eccentricity": 0.000603,
            "ArgumentOfPerigee": 308.9321,
            "MeanAnomaly": 51.0085,
            "MeanMotion": 1.86231253,
            "RevolutionNumber": "4629"
        },
        {
            "Name": "BEIDOU-3 M9 (C29)",
            "Line1": "1 43245U 18029A   24339.44400008 -.00000048  00000+0  00000+0 0  9990",
            "Line2": "2 43245  54.6877 319.4459 0002228 274.0823  85.8910  1.86232547 45471",
            "SatelliteNumber": "43245",
            "Classification": "U",
            "LaunchYear": "18",
            "LaunchNumber": "029",
            "PieceOfLaunch": "A",
            "EpochYear": "24",
            "EpochDay": 339.44400008,
            "FirstDerivativeMeanMotion": -4.8e-07,
            "SecondDerivativeMeanMotion": "00000+0",
            "BSTAR": "00000+0",
            "SetNumber": "999",
            "Inclination": 54.6877,
            "RAAN": 319.4459,
            "Eccentricity": 0.0002228,
            "ArgumentOfPerigee": 274.0823,
            "MeanAnomaly": 85.891,
            "MeanMotion": 1.86232547,
            "RevolutionNumber": "4547"
        },
        {
            "Name": "BEIDOU-3 M10 (C30)",
            "Line1": "1 43246U 18029B   24339.37344251 -.00000049  00000+0  00000+0 0  9991",
            "Line2": "2 43246  54.6847 319.4752 0004003 346.7245  13.2636  1.86232765 45453",
            "SatelliteNumber": "43246",
            "Classification": "U",
            "LaunchYear": "18",
            "LaunchNumber": "029",
            "PieceOfLaunch": "B",
            "EpochYear": "24",
            "EpochDay": 339.37344251,
            "FirstDerivativeMeanMotion": -4.9e-07,
            "SecondDerivativeMeanMotion": "00000+0",
            "BSTAR": "00000+0",
            "SetNumber": "999",
            "Inclination": 54.6847,
            "RAAN": 319.4752,
            "Eccentricity": 0.0004003,
            "ArgumentOfPerigee": 346.7245,
            "MeanAnomaly": 13.2636,
            "MeanMotion": 1.86232765,
            "RevolutionNumber": "4545"
        },
        {
            "Name": "BEIDOU-2 IGSO-7 (C16)",
            "Line1": "1 43539U 18057A   24339.27538773 -.00000049  00000+0  00000+0 0  9990",
            "Line2": "2 43539  55.1528 167.9046 0078246 231.9684 245.0857  1.00259763 23521",
            "SatelliteNumber": "43539",
            "Classification": "U",
            "LaunchYear": "18",
            "LaunchNumber": "057",
            "PieceOfLaunch": "A",
            "EpochYear": "24",
            "EpochDay": 339.27538773,
            "FirstDerivativeMeanMotion": -4.9e-07,
            "SecondDerivativeMeanMotion": "00000+0",
            "BSTAR": "00000+0",
            "SetNumber": "999",
            "Inclination": 55.1528,
            "RAAN": 167.9046,
            "Eccentricity": 0.0078246,
            "ArgumentOfPerigee": 231.9684,
            "MeanAnomaly": 245.0857,
            "MeanMotion": 1.00259763,
            "RevolutionNumber": "2352"
        },
        {
            "Name": "BEIDOU-3 M5 (C23)",
            "Line1": "1 43581U 18062A   24339.06226799  .00000082  00000+0  00000+0 0  9998",
            "Line2": "2 43581  54.1132 201.3526 0002096 340.5027  19.5882  1.86228734 43209",
            "SatelliteNumber": "43581",
            "Classification": "U",
            "LaunchYear": "18",
            "LaunchNumber": "062",
            "PieceOfLaunch": "A",
            "EpochYear": "24",
            "EpochDay": 339.06226799,
            "FirstDerivativeMeanMotion": 8.2e-07,
            "SecondDerivativeMeanMotion": "00000+0",
            "BSTAR": "00000+0",
            "SetNumber": "999",
            "Inclination": 54.1132,
            "RAAN": 201.3526,
            "Eccentricity": 0.0002096,
            "ArgumentOfPerigee": 340.5027,
            "MeanAnomaly": 19.5882,
            "MeanMotion": 1.86228734,
            "RevolutionNumber": "4320"
        },
        {
            "Name": "BEIDOU-3 M6 (C24)",
            "Line1": "1 43582U 18062B   24338.92720566  .00000083  00000+0  00000+0 0  9995",
            "Line2": "2 43582  54.1129 201.3466 0007274  39.6001 320.5527  1.86229787 43200",
            "SatelliteNumber": "43582",
            "Classification": "U",
            "LaunchYear": "18",
            "LaunchNumber": "062",
            "PieceOfLaunch": "B",
            "EpochYear": "24",
            "EpochDay": 338.92720566,
            "FirstDerivativeMeanMotion": 8.3e-07,
            "SecondDerivativeMeanMotion": "00000+0",
            "BSTAR": "00000+0",
            "SetNumber": "999",
            "Inclination": 54.1129,
            "RAAN": 201.3466,
            "Eccentricity": 0.0007274,
            "ArgumentOfPerigee": 39.6001,
            "MeanAnomaly": 320.5527,
            "MeanMotion": 1.86229787,
            "RevolutionNumber": "4320"
        },
        {
            "Name": "BEIDOU-3 M12 (C26)",
            "Line1": "1 43602U 18067A   24337.25029093  .00000092  00000+0  00000+0 0  9995",
            "Line2": "2 43602  54.2048 200.1003 0008606  34.4023 325.7594  1.86227728 42657",
            "SatelliteNumber": "43602",
            "Classification": "U",
            "LaunchYear": "18",
            "LaunchNumber": "067",
            "PieceOfLaunch": "A",
            "EpochYear": "24",
            "EpochDay": 337.25029093,
            "FirstDerivativeMeanMotion": 9.2e-07,
            "SecondDerivativeMeanMotion": "00000+0",
            "BSTAR": "00000+0",
            "SetNumber": "999",
            "Inclination": 54.2048,
            "RAAN": 200.1003,
            "Eccentricity": 0.0008606,
            "ArgumentOfPerigee": 34.4023,
            "MeanAnomaly": 325.7594,
            "MeanMotion": 1.86227728,
            "RevolutionNumber": "4265"
        },
        {
            "Name": "BEIDOU-3 M11 (C25)",
            "Line1": "1 43603U 18067B   24338.99466027  .00000084  00000+0  00000+0 0  9991",
            "Line2": "2 43603  54.2021 200.0057 0005222  30.3842 329.7444  1.86227225 42719",
            "SatelliteNumber": "43603",
            "Classification": "U",
            "LaunchYear": "18",
            "LaunchNumber": "067",
            "PieceOfLaunch": "B",
            "EpochYear": "24",
            "EpochDay": 338.99466027,
            "FirstDerivativeMeanMotion": 8.4e-07,
            "SecondDerivativeMeanMotion": "00000+0",
            "BSTAR": "00000+0",
            "SetNumber": "999",
            "Inclination": 54.2021,
            "RAAN": 200.0057,
            "Eccentricity": 0.0005222,
            "ArgumentOfPerigee": 30.3842,
            "MeanAnomaly": 329.7444,
            "MeanMotion": 1.86227225,
            "RevolutionNumber": "4271"
        }
    ]
}